2010/01/17 11:00
TAF LYVR 171100Z 1712/1812 16024G36KT CAVOK TX04/1712Z TNM02/1805Z 
      BECMG 1723/1801 14018KT 
      BECMG 1801/1803 14008KT 4000 -SN BR BKN010 BKN030
